OBJECT_NAME,OBJECT_ID,EPOCH,MEAN_MOTION,ECCENTRICITY,INCLINATION,RA_OF_ASC_NODE,ARG_OF_PERICENTER,MEAN_ANOMALY,EPHEMERIS_TYPE,CLASSIFICATION_TYPE,NORAD_CAT_ID,ELEMENT_SET_NO,REV_AT_EPOCH,BSTAR,MEAN_MOTION_DOT,MEAN_MOTION_DDOT
CZ-4C R/B,2022-027B,2026-06-30T22:19:41.786400,13.65480880,.02337245,63.3943,22.3362,22.6035,338.5095,0,U,52085,999,21391,.62452263E-4,-.34E-6,0
MERIDIAN 10,2022-030A,2026-06-30T10:17:13.314048,2.00611999,.67875351,62.6789,139.3592,272.8497,17.6300,0,U,52145,999,3129,0,.159E-5,0
OMNI-L1,2022-033A,2026-06-30T22:41:14.002944,14.82799287,.00041861,97.8396,260.8554,227.4645,132.6215,0,U,52157,999,22949,.27813598E-3,.2197E-4,0
ENMAP,2022-033C,2026-06-30T22:28:52.180320,14.74930916,.00014896,97.9801,263.9915,77.1145,283.0231,0,U,52159,999,22868,.85233949E-4,.522E-5,0
ARCSAT-1,2022-033E,2026-06-30T17:08:44.647296,15.53938308,.00059734,97.2762,274.1907,137.1636,223.0084,0,U,52161,999,23780,.20073225E-3,.12861E-3,0
GLOBAL-18,2022-034B,2026-06-30T12:04:11.970048,15.46719227,.00038317,52.9789,192.9774,338.7712,21.3134,0,U,52196,999,23902,.32267377E-3,.15999E-3,0
GAOFEN-3 03,2022-035A,2026-06-30T23:11:47.251104,14.42216091,.00015761,98.4056,190.3465,98.0584,262.0784,0,U,52200,999,22283,-.37325842E-4,-.166E-5,0
DAQI-1,2022-039A,2026-06-30T22:37:18.164640,14.57684890,.00028691,98.1487,120.5106,192.0802,168.0329,0,U,52257,999,22394,.44516005E-4,.158E-5,0
BRO-6,2022-047AE,2026-06-30T22:40:03.102240,15.51491963,.00038183,97.3405,273.2715,26.1052,334.0392,0,U,52422,999,23328,.84869269E-3,.50299E-3,0
JILIN-1 GAOFEN 3D27,2022-048B,2026-06-30T22:12:12.018240,15.78781175,.00030539,97.5728,297.1403,284.6425,75.4502,0,U,52444,999,23164,.96345801E-3,.171601E-2,0
JILIN-1 GAOFEN 3D28,2022-048C,2026-06-30T23:00:00.470592,15.82578168,.00026086,97.5661,297.3892,261.4830,98.6143,0,U,52445,999,23170,.99325487E-3,.211284E-2,0
VIGORIDE-3,2022-057AE,2026-06-30T21:49:24.242304,15.27420638,.00096508,97.6624,322.2489,79.0387,281.1936,0,U,52760,999,22725,.22924875E-3,.6082E-4,0
ION SCV-006,2022-057AF,2026-06-30T21:24:06.088032,15.45615549,.00179237,97.6116,331.1742,67.2643,293.0497,0,U,52761,999,22823,.30698081E-3,.14782E-3,0
SHERPA-AC1,2022-057AH,2026-06-30T20:59:36.153600,15.36453068,.00083986,97.6702,331.6735,51.4830,308.7165,0,U,52763,999,22780,.23619448E-3,.8322E-4,0
OMNI-L2,2022-057AR,2026-06-30T15:09:40.846464,14.81404716,.00050925,97.4710,243.0866,281.7749,78.2894,0,U,52771,999,22238,.18474961E-3,.1398E-4,0
STEP CUBE LAB-II,2022-065D,2026-06-30T22:45:42.866784,14.63323947,.00083426,98.2240,325.8081,351.2452,8.8603,0,U,52897,999,21351,.15786828E-3,.767E-5,0
RANDEV,2022-065E,2026-06-30T22:42:01.255968,14.63712045,.0007701,98.2224,326.1636,352.3491,7.7592,0,U,52898,999,21326,.16262328E-3,.799E-5,0
SNUGLITE-II,2022-065F,2026-06-30T08:31:44.552928,14.64371015,.00070942,98.2217,326.1635,352.7825,7.3274,0,U,52899,999,21292,.19173526E-3,.965E-5,0
MIMAN,2022-065G,2026-06-30T20:59:25.135008,14.61858395,.00072795,98.2278,324.2891,353.3872,6.7232,0,U,52900,999,21244,.1273061E-3,.589E-5,0
STARLINK-4362,2022-077A,2026-06-30T11:46:48.239040,15.05661044,.00019672,97.2939,359.7573,82.9111,277.2340,0,U,53043,999,21788,-.99016867E-4,-.1485E-4,0
LARES-2,2022-080A,2026-06-26T09:41:16.046016,6.38965133,.0005264,70.1592,302.1681,334.1364,25.8897,0,U,53105,999,9225,0,-.28E-6,0
GREENCUBE (IO-117),2022-080E,2026-06-30T17:23:31.202880,6.42583253,.00089588,70.1437,293.5372,286.6703,73.2973,0,U,53109,999,9293,0,-.3E-7,0
STARLINK-4410,2022-084R,2026-06-30T22:00:01.999584,15.37754791,.00011605,97.5995,243.4078,74.2874,332.1916,0,U,53204,999,589,.17348404E-2,.64721E-3,0
COSMOS 2558,2022-089A,2026-06-30T19:02:04.283232,15.78092571,.0002646,97.2260,286.4389,245.3507,114.7485,0,U,53323,999,21997,.75689E-3,.130056E-2,0
TECMS,2022-090A,2026-06-30T23:17:28.442112,15.21499968,.00047094,97.3135,249.6902,136.2416,223.9194,0,U,53346,999,21690,.17756755E-3,.3928E-4,0
DONGPO 02,2022-098J,2026-06-30T22:56:34.258848,15.77574274,.0003711,97.5535,314.3690,242.8226,117.2661,0,U,53452,999,21696,.86777616E-3,.146048E-2,0
DONGPO 01,2022-098K,2026-06-30T07:57:26.394336,15.74926746,.00021414,97.5596,314.1781,224.9270,135.1821,0,U,53453,999,21682,.9174057E-3,.137374E-2,0
STARLINK-4400,2022-099D,2026-06-30T19:15:24.448320,15.05653847,.00017416,97.2905,300.1328,134.6967,225.4402,0,U,53468,999,21299,.62693068E-4,.848E-5,0
STARLINK-4621,2022-105AE,2026-06-30T14:32:17.851488,15.05663312,.00023492,97.2946,59.9608,86.2844,273.8653,0,U,53676,999,21022,-.86051209E-4,-.1298E-4,0
SHERPA-LTC2,2022-107BG,2026-06-30T22:08:22.718688,14.69820848,.03928837,53.2351,162.1808,264.6215,90.9831,0,U,53754,999,20456,.19759755E-3,.3711E-4,0
CENTISPACE-1 S3,2022-108A,2026-06-30T21:18:05.476032,14.61269114,.00101875,53.5341,358.6067,30.8679,329.2893,0,U,53757,999,20353,.13352968E-3,.474E-5,0
CENTISPACE-1 S4,2022-108B,2026-06-30T22:24:41.253984,14.61954146,.00093806,53.5316,355.8681,20.1503,339.9841,0,U,53758,999,20357,.16424841E-3,.639E-5,0
BLUEWALKER-3,2022-111AL,2026-06-29T18:48:28.480608,15.38427065,.0005308,53.2300,334.8282,202.6401,157.4371,0,U,53807,999,21214,.18214365E-3,.6618E-4,0
YUNHAI-1 03,2022-115A,2026-06-30T22:41:20.042304,14.32727884,.00051016,98.5535,179.9178,21.0653,339.0740,0,U,53877,999,19748,.14567891E-3,.353E-5,0
CENTISPACE-1 S5,2022-126A,2026-06-30T22:52:31.543104,14.63034235,.00147372,54.9975,157.8717,97.8702,262.3966,0,U,54020,999,19905,.18785623E-3,.782E-5,0
CENTISPACE-1 S6,2022-126B,2026-06-30T22:52:34.299264,14.62299557,.00165454,54.9977,159.8010,98.5089,261.7781,0,U,54021,999,19901,.92155681E-4,.28E-5,0
OTB-3-GAZELLE,2022-127A,2026-06-30T22:20:37.116096,14.42679495,.00138645,98.3949,173.4263,142.7458,217.4696,0,U,54023,999,19634,.62208659E-4,.164E-5,0
ASO-S,2022-129A,2026-06-30T23:11:44.640960,14.52068530,.00154385,98.2748,186.8495,53.7626,306.4994,0,U,54029,999,19742,.70683882E-4,.242E-5,0
HJ-2E,2022-132A,2026-06-30T22:56:58.883712,15.22513845,.00187986,97.3793,186.0857,325.4665,34.5349,0,U,54035,999,20651,.36660249E-3,.8471E-4,0
COSMOS 2561,2022-137A,2026-06-30T19:58:16.795776,15.52037508,.0008851,96.9173,240.3242,345.1213,14.9779,0,U,54109,999,20846,.23418E-3,.14044E-3,0
GONETS-M 23,2022-139A,2026-06-30T22:44:02.564160,12.42891487,.00215039,82.5081,339.7419,189.0780,170.9914,0,U,54150,999,16735,.20914904E-3,.39E-6,0
GONETS-M 24,2022-139B,2026-06-30T22:05:16.322784,12.42892086,.00165723,82.4998,338.8090,198.9629,161.0836,0,U,54151,999,16735,.12041725E-3,.27E-6,0
GONETS-M 25,2022-139C,2026-06-30T21:45:42.017184,12.42890555,.00204963,82.5063,339.5113,198.0195,162.0161,0,U,54152,999,16735,.1265961E-3,.27E-6,0
SKIF-D,2022-139D,2026-06-29T15:33:21.063744,5.00427113,.00074078,89.9495,96.6644,193.5770,166.4619,0,U,54153,999,6473,0,.3E-7,0
MATS,2022-147A,2026-06-30T14:36:37.840320,15.05438723,.00134913,97.6824,183.1469,147.8885,212.3166,0,U,54227,999,19978,.25876679E-3,.3659E-4,0
JILIN-1 GAOFEN 03D54,2022-155D,2026-06-30T13:22:21.268704,16.13407569,.00099443,97.6160,336.6136,263.4387,96.5766,0,U,54254,999,20244,.77921704E-3,.90657E-2,.50866334E-3
EOS-6 (OCEANSAT-3),2022-158A,2026-06-30T22:09:32.835744,14.47008301,.00005003,98.3548,279.9358,52.1178,308.0060,0,U,54361,999,18982,.85459315E-4,.267E-5,0
DONGPO 09,2022-167D,2026-06-30T22:56:50.766432,15.36638659,.00034747,97.6903,353.5804,84.9180,275.2460,0,U,54685,999,19756,.36878412E-3,.13117E-3,0
DONGPO 08,2022-167E,2026-06-30T23:03:39.851424,15.33921861,.00093248,97.6869,350.6977,117.0596,243.1598,0,U,54686,999,19743,.39193583E-3,.12801E-3,0
2022-167F,2022-167F,2026-06-30T21:02:02.376960,16.00483486,.00038691,97.6047,11.5681,245.2495,114.8380,0,U,54687,999,19901,.73083135E-3,.380113E-2,.63895952E-4
DONGPO 10,2022-167H,2026-06-30T23:02:44.888928,15.34733911,.00060071,97.6949,352.6813,71.3455,288.8439,0,U,54689,999,19747,.38176093E-3,.12782E-3,0
JILIN-1 GAOFEN 03D48,2022-167P,2026-06-30T22:49:28.336224,15.35512936,.00073692,97.6884,352.0543,74.2803,285.9252,0,U,54695,999,19750,.36787808E-3,.12627E-3,0
STAR VIBE,2023-001A,2026-06-30T23:39:06.151104,15.42995636,.00067338,97.3165,246.5076,74.0454,286.1535,0,U,55009,999,19435,.39814484E-3,.17488E-3,0
BRO-8,2023-001C,2026-06-30T22:23:41.767584,15.49892429,.00063311,97.3202,247.3223,85.8186,274.3789,0,U,55011,999,19433,.64407082E-3,.36002E-3,0
CONNECTA T1.2,2023-001D,2026-06-29T22:38:54.727008,15.51712973,.00055989,97.3257,251.8686,62.7492,297.4330,0,U,55012,999,19452,.72836405E-3,.43472E-3,0
BIRKELAND,2023-001G,2026-06-30T22:04:49.725408,15.40314736,.00078356,97.3342,249.9263,66.0108,294.1958,0,U,55015,999,19446,.24035391E-3,.9616E-4,0
ION SCV-008,2023-001AU,2026-06-30T20:28:56.640576,15.28730147,.00137691,97.5720,278.4010,328.9420,31.1004,0,U,55051,999,19342,.22798036E-3,.6306E-4,0
ION SCV-007,2023-001BD,2026-06-30T21:03:31.497696,14.77565369,.00109984,97.9001,244.6207,294.3583,65.6479,0,U,55060,999,18827,.72000709E-4,.464E-5,0
HUYGENS,2023-001CN,2026-06-30T23:38:29.074272,15.40316769,.00100634,97.3247,249.2035,43.1243,317.0789,0,U,55093,999,19449,.25716323E-3,.10303E-3,0
SHARJAHSAT-1,2023-001CZ,2026-06-30T22:25:34.732992,15.49604996,.00061614,97.3171,250.8946,64.3789,295.8099,0,U,55104,999,19462,.43463028E-3,.23983E-3,0
HORUS 1,2023-025A,2026-06-30T22:44:11.504832,15.23404382,.00022871,97.3463,256.2524,133.8944,226.2482,0,U,55690,999,18614,.2858537E-3,.6734E-4,0
HORUS 2,2023-032A,2026-06-30T23:33:20.449152,15.23569219,.00022534,97.3535,257.1070,92.8171,267.3324,0,U,55844,999,18358,.26399859E-3,.6244E-4,0
GLOBAL-19,2023-041B,2026-06-30T20:44:20.120928,15.38339551,.00074375,42.0008,122.1110,112.8192,247.3434,0,U,55982,999,18403,.40497418E-3,.15433E-3,0
ION SCV-010,2023-054Q,2026-06-30T17:33:10.753344,15.26308511,.00136261,97.3765,71.0599,149.9239,210.2785,0,U,56192,999,17826,.17500905E-3,.448E-4,0
TELEOS-2,2023-057C,2026-06-30T22:52:06.436992,14.96388600,.00009832,9.9885,103.9457,262.8498,97.1604,0,U,56310,999,17486,.42744076E-3,.5667E-4,0
